STARLINK-35446          
1 66432U 25259L   26068.94844082  .00023204  00000+0  84948-3 0  9991
2 66432  43.0062 272.6467 0002019 282.9633  77.0994 15.27602924 19539
KUIPER-00209            
1 67776U 26030N   26068.61786546  .00035298  00000+0  11963-2 0  9997
2 67776  51.8838 220.0775 0012191  59.1967 301.0215 15.30161950  5077
