[{"OBJECT_NAME":"STARLINK-35446","OBJECT_ID":"2025-259L","EPOCH":"2026-03-09T22:45:45.286848","MEAN_MOTION":15.27602924,"ECCENTRICITY":0.00020187,"INCLINATION":43.0062,"RA_OF_ASC_NODE":272.6467,"ARG_OF_PERICENTER":282.9633,"MEAN_ANOMALY":77.0994,"EPHEMERIS_TYPE":0,"CLASSIFICATION_TYPE":"U","NORAD_CAT_ID":66432,"ELEMENT_SET_NO":999,"REV_AT_EPOCH":1953,"BSTAR":0.00084947857,"MEAN_MOTION_DOT":0.00023204,"MEAN_MOTION_DDOT":0},{"OBJECT_NAME":"KUIPER-00209","OBJECT_ID":"2026-030N","EPOCH":"2026-03-09T14:49:43.575744","MEAN_MOTION":15.3016195,"ECCENTRICITY":0.0012191,"INCLINATION":51.8838,"RA_OF_ASC_NODE":220.0775,"ARG_OF_PERICENTER":59.1967,"MEAN_ANOMALY":301.0215,"EPHEMERIS_TYPE":0,"CLASSIFICATION_TYPE":"U","NORAD_CAT_ID":67776,"ELEMENT_SET_NO":999,"REV_AT_EPOCH":507,"BSTAR":0.0011963,"MEAN_MOTION_DOT":0.00035298,"MEAN_MOTION_DDOT":0}]
